[Satellite]
VERSION=1.1
NAME=INFLATABLE TEST MODULE
NICKNAME=INFLATABLE TEST MODULE
TLE1=1 45600U 20027B   20126.97420378  .01020755  71957-5  31031-3 0  9992
TLE2=2 45600  41.1024 326.2229 0153157 172.3557 299.0218 16.03267776    92
STATUS=0
